{
  "type": "FeatureCollection",
  "features": [
    {
      "type": "Feature",
      "properties": {
        "norad_id": 34079,
        "name": "IRIDIUM 33 DEB",
        "group": "iridium-33-debris",
        "lat": 38.64670157931978,
        "lon": -176.13380599157287,
        "alt_km": 618.1658252770831,
        "timestamp": "2025-12-16T21:38:57.559821+00:00",
        "meta_object_name": "IRIDIUM 33 DEB",
        "meta_object_id": "1997-051CN",
        "meta_epoch": "2025-12-16T03:23:56.181408",
        "meta_mean_motion": 14.83619432,
        "meta_eccentricity": 0.00052215,
        "meta_inclination": 86.3777,
        "meta_ra_of_asc_node": 7.1155,
        "meta_arg_of_pericenter": 356.7637,
        "meta_mean_anomaly": 45.5465,
        "meta_ephemeris_type": 0,
        "meta_classification_type": "U",
        "meta_norad_cat_id": 34079,
        "meta_element_set_no": 999,
        "meta_rev_at_epoch": 89028,
        "meta_bstar": 0.0012282375,
        "meta_mean_motion_dot": 0.0001016,
        "meta_mean_motion_ddot": 0,
        "tle_line1": "1 34079U 97051CN  25350.14162247  .00010160  00000+0  12282-2 0  9991",
        "tle_line2": "2 34079  86.3777   7.1155 0005221 356.7637  45.5465 14.83619432890286"
      },
      "geometry": {
        "type": "Point",
        "coordinates": [
          -176.13380599157287,
          38.64670157931978
        ]
      }
    },
    {
      "type": "Feature",
      "properties": {
        "norad_id": 34088,
        "name": "IRIDIUM 33 DEB",
        "group": "iridium-33-debris",
        "lat": -9.369102579698128,
        "lon": 28.213900034063407,
        "alt_km": 601.5336142362366,
        "timestamp": "2025-12-16T21:38:57.559831+00:00",
        "meta_object_name": "IRIDIUM 33 DEB",
        "meta_object_id": "1997-051CX",
        "meta_epoch": "2025-12-16T08:52:22.816992",
        "meta_mean_motion": 14.91555792,
        "meta_eccentricity": 0.00061391,
        "meta_inclination": 86.3848,
        "meta_ra_of_asc_node": 29.0562,
        "meta_arg_of_pericenter": 164.5141,
        "meta_mean_anomaly": 209.6288,
        "meta_ephemeris_type": 0,
        "meta_classification_type": "U",
        "meta_norad_cat_id": 34088,
        "meta_element_set_no": 999,
        "meta_rev_at_epoch": 88796,
        "meta_bstar": 0.0016532339,
        "meta_mean_motion_dot": 0.00016619,
        "meta_mean_motion_ddot": 0,
        "tle_line1": "1 34088U 97051CX  25350.36970853  .00016619  00000+0  16532-2 0  9992",
        "tle_line2": "2 34088  86.3848  29.0562 0006139 164.5141 209.6288 14.91555792887968"
      },
      "geometry": {
        "type": "Point",
        "coordinates": [
          28.213900034063407,
          -9.369102579698128
        ]
      }
    },
    {
      "type": "Feature",
      "properties": {
        "norad_id": 34091,
        "name": "IRIDIUM 33 DEB",
        "group": "iridium-33-debris",
        "lat": 34.4128666106291,
        "lon": 67.43903715525113,
        "alt_km": 630.8321233624347,
        "timestamp": "2025-12-16T21:38:57.559842+00:00",
        "meta_object_name": "IRIDIUM 33 DEB",
        "meta_object_id": "1997-051DA",
        "meta_epoch": "2025-12-16T05:17:24.983520",
        "meta_mean_motion": 14.82095169,
        "meta_eccentricity": 0.00334803,
        "meta_inclination": 86.3422,
        "meta_ra_of_asc_node": 65.2396,
        "meta_arg_of_pericenter": 280.6095,
        "meta_mean_anomaly": 79.1357,
        "meta_ephemeris_type": 0,
        "meta_classification_type": "U",
        "meta_norad_cat_id": 34091,
        "meta_element_set_no": 999,
        "meta_rev_at_epoch": 87918,
        "meta_bstar": 0.0036064506,
        "meta_mean_motion_dot": 0.00029061,
        "meta_mean_motion_ddot": 0,
        "tle_line1": "1 34091U 97051DA  25350.22042805  .00029061  00000+0  36065-2 0  9996",
        "tle_line2": "2 34091  86.3422  65.2396 0033480 280.6095  79.1357 14.82095169879183"
      },
      "geometry": {
        "type": "Point",
        "coordinates": [
          67.43903715525113,
          34.4128666106291
        ]
      }
    },
    {
      "type": "Feature",
      "properties": {
        "norad_id": 34097,
        "name": "IRIDIUM 33 DEB",
        "group": "iridium-33-debris",
        "lat": -64.31503782627227,
        "lon": -8.370004545515918,
        "alt_km": 747.3913150185308,
        "timestamp": "2025-12-16T21:38:57.559852+00:00",
        "meta_object_name": "IRIDIUM 33 DEB",
        "meta_object_id": "1997-051DG",
        "meta_epoch": "2025-12-16T01:51:38.376000",
        "meta_mean_motion": 14.34805305,
        "meta_eccentricity": 0.00822356,
        "meta_inclination": 86.2008,
        "meta_ra_of_asc_node": 359.9353,
        "meta_arg_of_pericenter": 351.3044,
        "meta_mean_anomaly": 8.6721,
        "meta_ephemeris_type": 0,
        "meta_classification_type": "U",
        "meta_norad_cat_id": 34097,
        "meta_element_set_no": 999,
        "meta_rev_at_epoch": 87167,
        "meta_bstar": 0.0010750734,
        "meta_mean_motion_dot": 3.186e-05,
        "meta_mean_motion_ddot": 0,
        "tle_line1": "1 34097U 97051DG  25350.07752750  .00003186  00000+0  10751-2 0  9996",
        "tle_line2": "2 34097  86.2008 359.9353 0082235 351.3044   8.6721 14.34805305871672"
      },
      "geometry": {
        "type": "Point",
        "coordinates": [
          -8.370004545515918,
          -64.31503782627227
        ]
      }
    },
    {
      "type": "Feature",
      "properties": {
        "norad_id": 34145,
        "name": "IRIDIUM 33 DEB",
        "group": "iridium-33-debris",
        "lat": -42.652991924535975,
        "lon": -32.82644402889518,
        "alt_km": 779.186549263688,
        "timestamp": "2025-12-16T21:38:57.559863+00:00",
        "meta_object_name": "IRIDIUM 33 DEB",
        "meta_object_id": "1997-051DY",
        "meta_epoch": "2025-12-16T05:11:50.015904",
        "meta_mean_motion": 14.42314642,
        "meta_eccentricity": 0.00557711,
        "meta_inclination": 86.2114,
        "meta_ra_of_asc_node": 330.9786,
        "meta_arg_of_pericenter": 82.793,
        "meta_mean_anomaly": 277.9606,
        "meta_ephemeris_type": 0,
        "meta_classification_type": "U",
        "meta_norad_cat_id": 34145,
        "meta_element_set_no": 999,
        "meta_rev_at_epoch": 87688,
        "meta_bstar": 0.00083631618,
        "meta_mean_motion_dot": 2.832e-05,
        "meta_mean_motion_ddot": 0,
        "tle_line1": "1 34145U 97051DY  25350.21655111  .00002832  00000+0  83632-3 0  9995",
        "tle_line2": "2 34145  86.2114 330.9786 0055771  82.7930 277.9606 14.42314642876886"
      },
      "geometry": {
        "type": "Point",
        "coordinates": [
          -32.82644402889518,
          -42.652991924535975
        ]
      }
    },
    {
      "type": "Feature",
      "properties": {
        "norad_id": 34146,
        "name": "IRIDIUM 33 DEB",
        "group": "iridium-33-debris",
        "lat": 56.260293292905374,
        "lon": -6.453005893125208,
        "alt_km": 739.3551452803204,
        "timestamp": "2025-12-16T21:38:57.559873+00:00",
        "meta_object_name": "IRIDIUM 33 DEB",
        "meta_object_id": "1997-051DZ",
        "meta_epoch": "2025-12-16T00:05:26.706048",
        "meta_mean_motion": 14.49072903,
        "meta_eccentricity": 0.00258086,
        "meta_inclination": 86.2834,
        "meta_ra_of_asc_node": 348.3589,
        "meta_arg_of_pericenter": 210.1704,
        "meta_mean_anomaly": 203.4774,
        "meta_ephemeris_type": 0,
        "meta_classification_type": "U",
        "meta_norad_cat_id": 34146,
        "meta_element_set_no": 999,
        "meta_rev_at_epoch": 88154,
        "meta_bstar": 0.00067263387,
        "meta_mean_motion_dot": 2.584e-05,
        "meta_mean_motion_ddot": 0,
        "tle_line1": "1 34146U 97051DZ  25350.00378132  .00002584  00000+0  67263-3 0  9994",
        "tle_line2": "2 34146  86.2834 348.3589 0025808 210.1704 203.4774 14.49072903881541"
      },
      "geometry": {
        "type": "Point",
        "coordinates": [
          -6.453005893125208,
          56.260293292905374
        ]
      }
    },
    {
      "type": "Feature",
      "properties": {
        "norad_id": 34159,
        "name": "IRIDIUM 33 DEB",
        "group": "iridium-33-debris",
        "lat": -26.400307608698434,
        "lon": 44.65127547711527,
        "alt_km": 760.0368150156737,
        "timestamp": "2025-12-16T21:38:57.559884+00:00",
        "meta_object_name": "IRIDIUM 33 DEB",
        "meta_object_id": "1997-051EN",
        "meta_epoch": "2025-12-16T03:24:28.180512",
        "meta_mean_motion": 14.38502653,
        "meta_eccentricity": 0.00259522,
        "meta_inclination": 86.3506,
        "meta_ra_of_asc_node": 46.7908,
        "meta_arg_of_pericenter": 275.7121,
        "meta_mean_anomaly": 84.1118,
        "meta_ephemeris_type": 0,
        "meta_classification_type": "U",
        "meta_norad_cat_id": 34159,
        "meta_element_set_no": 999,
        "meta_rev_at_epoch": 88008,
        "meta_bstar": 0.00037309184,
        "meta_mean_motion_dot": 1.163e-05,
        "meta_mean_motion_ddot": 0,
        "tle_line1": "1 34159U 97051EN  25350.14199283  .00001163  00000+0  37309-3 0  9991",
        "tle_line2": "2 34159  86.3506  46.7908 0025952 275.7121  84.1118 14.38502653880088"
      },
      "geometry": {
        "type": "Point",
        "coordinates": [
          44.65127547711527,
          -26.400307608698434
        ]
      }
    }
  ]
}